SENTINEL-6              
1 46984U 20086A   23264.55737190 -.00000063  00000+0 -83899-5 0  9993
2 46984  66.0423  51.2912 0007847 268.1978  91.8138 12.80929823132292
